1 20253U 89077A   26134.98549763 -.00000362  00000-0  00000-0 0  9992
2 20253  12.4310 351.3671 0006466  25.6388 336.2412  1.00271236260231
1 20776U 90079A   26134.79053552  .00000131  00000-0  00000-0 0  9994
2 20776  13.3516 350.0423 0003785  65.4322 134.9820  1.00270657130554
1 22787U 93056A   26134.79197940  .00000131  00000-0  00000-0 0  9996
2 22787  11.8837   3.7417 0008676 359.3140 183.1844  1.00273125118213
1 23467U 95003A   26134.57200178 -.00000011  00000-0  00000-0 0  9998
2 23467   9.7023  13.3456 0003525  38.6302 198.7103  1.00276272114613
1 23967U 96042A   26135.08447442 -.00000266  00000-0  00000-0 0  9993
2 23967  11.0860  17.2662 0005229  99.3195 108.2000  1.00225287109157
1 25544U 98067A   26135.16618096  .00004382  00000-0  87007-4 0  9997
2 25544  51.6313 103.5621 0007452  60.7339 299.4393 15.49219006566637
1 25967U 99063A   26135.07891949 -.00000179  00000-0  00000-0 0  9998
2 25967   9.8492  27.3862 0002874 359.9608 211.0366  1.00269132 97012
1 27168U 02001A   26134.89294334  .00000106  00000-0  00000-0 0  9992
2 27168  11.1407  22.1079 0099387   7.4862 183.4654  1.00275504 32622
1 27607U 02058C   26135.31491283  .00000553  00000-0  83122-4 0  9998
2 27607  64.5521 230.6844 0075650 268.4764  90.7676 14.82973632259583
1 28117U 03057A   26133.76350330 -.00000092  00000-0  00000-0 0  9998
2 28117   8.9389  34.0005 0002459  14.6167 173.2000  1.00272456 82106
1 28899U 05044A   26134.98905097 -.00000248  00000-0  00000-0 0  9997
2 28899   5.0527  43.7388 0002682  12.8700 315.6818  1.00271725 75184
1 30794U 07007B   26134.98775291 -.00000258  00000-0  00000-0 0  9997
2 30794   5.2183  74.1346 0004163 348.5732 260.8474  1.00271468 70361
1 32294U 07056B   26135.03679481  .00000154  00000-0  00000-0 0  9993
2 32294   5.1705  73.8881 0003497 335.9311 221.2851  1.00272057 67865
1 35943U 09054B   26135.11563611  .00000000  00000-0  00000-0 0  9993
2 35943   0.0237  53.3032 0003008   5.2670 278.9101  1.00269786 60974
1 36582U 10021B   26135.24841264  .00000101  00000-0  00000-0 0  9998
2 36582   0.0169 291.9599 0002511 132.0288 271.6381  1.00267499 58626
1 38098U 12011A   26135.22405819 -.00000047  00000-0  00000-0 0  9993
2 38098   0.0128 312.2784 0002295 121.6664 311.8091  1.00277354  6853
1 39034U 12075A   26135.18494836  .00000112  00000-0  00000-0 0  9998
2 39034   0.0722 334.7662 0003574  86.3829 291.1283  1.00272103 48822
1 39215U 13038A   26135.25066598  .00000145  00000-0  00000-0 0  9993
2 39215   2.9954   1.6297 0002375  84.4214 262.0569  1.00270553 43680
1 40296U 14069A   26134.78391833  .00000272  00000-0  00000-0 0  9990
2 40296  63.4426 218.6194 6660363 270.7867  19.5320  2.00588881 84569
1 40931U 15052B   25151.18580175  .00001241  00000-0  78118-4 0  9996
2 40931   6.0006  24.0987 0012733 338.8432  21.1169 14.78805930523159
1 43678U 18084H   26135.29092416  .00001528  00000-0  12707-3 0  9995
2 43678  98.1106 330.0883 0011852 284.6684  75.3224 15.00280713411281
1 43700U 18090A   26134.60920626  .00000158  00000-0  00000-0 0  9993
2 43700   0.0142 281.7771 0001092 128.3875  67.3487  1.00275558 27346
1 43803U 18099AX  26135.13424294  .00011397  00000-0  36477-3 0  9992
2 43803  97.4156 197.8790 0006190  44.4123 315.7614 15.32550008408566
1 44453U 19046A   26134.81907115 -.00000005  00000-0  00000-0 0  9994
2 44453  63.1076  55.0628 7066623 274.7723  14.8451  2.00607102 49670
1 44909U 19096E   26135.09071937  .00000036  00000-0  10505-3 0  9997
2 44909  82.5237   1.7014 0216716 221.5727 136.8721 12.79748184298117
1 45254U 20015A   26134.56897690 -.00000127  00000-0  00000-0 0  9995
2 45254  65.5226 322.5416 6868649 278.4932  14.9316  2.00602034 45610
1 52145U 22030A   26134.57360580  .00000271  00000-0  00000-0 0  9994
2 52145  62.6770 144.4037 6774770 272.8816  17.7201  2.00616231 30352
1 57167U 23091B   26010.59363612  .08733485  25619-5  12458-2 0  9993
2 57167  97.4978  91.1570 0009532 282.8011  77.2220 16.34765267141469
1 59112U 24043Q   26134.66342604  .00023058  00000-0  32933-3 0  9999
2 59112  97.5497 283.0789 0005804 324.8919  35.1952 15.56252905122674
1 67291U 25313AV  26135.16147604  .00007797  00000-0  31136-3 0  9992
2 67291  97.3945 210.7374 0010643 111.0343 249.2034 15.25369472 20959
1 26635U 00080A   21013.46269075 0.00000000  00000-0  00000-0 0    09
2 26635   9.2857  29.8038 0014383 186.3086 173.6859  1.00273100    09
1 34810U 09020A   26118.58802400 0.00000000  00000-0  00000-0 0    05
2 34810   3.0809  80.0043 0003222 250.4250 109.5484  1.00270000    01
1 40614U 15022B   25359.93496764 0.00000000  00000-0  00000-0 0    00
2 40614   0.0160 108.2839 0003453 352.8976   7.0980  1.00270000    04
